{"type": "FeatureCollection", "features": [ {"type": "Feature", "properties": {"norad_id": 34031, "name": "COSMOS 2251 DEB", "group": "cosmos-2251-debris", "lat": -37.775278270426604, "lon": -24.767387835218024, "alt_km": 688.6055706105753, "timestamp": "2025-12-09T05:43:21.119931+00:00", "meta": {"OBJECT_NAME": "COSMOS 2251 DEB", "OBJECT_ID": "1993-036HS", "EPOCH": "2025-12-08T17:16:41.152800", "MEAN_MOTION": 14.59610049, "ECCENTRICITY": 0.0023001, "INCLINATION": 74.0127, "RA_OF_ASC_NODE": 143.385, "ARG_OF_PERICENTER": 263.9458, "MEAN_ANOMALY": 112.2308, "EPHEMERIS_TYPE": 0, "CLASSIFICATION_TYPE": "U", "NORAD_CAT_ID": 34031, "ELEMENT_SET_NO": 999, "REV_AT_EPOCH": 88507, "BSTAR": 0.0020493, "MEAN_MOTION_DOT": 9.771e-05, "MEAN_MOTION_DDOT": 0}, "tle": {"line1": "1 34031U 93036HS  25342.71992075  .00009771  00000+0  20493-2 0  9991", "line2": "2 34031  74.0127 143.3850 0023001 263.9458 112.2308 14.59610049885075"}}, "geometry": {"type": "Point", "coordinates": [-24.767387835218024, -37.775278270426604]}}, {"type": "Feature", "properties": {"norad_id": 34035, "name": "COSMOS 2251 DEB", "group": "cosmos-2251-debris", "lat": 55.68862339541044, "lon": 150.97566402862319, "alt_km": 730.8577644401703, "timestamp": "2025-12-09T05:43:21.119942+00:00", "meta": {"OBJECT_NAME": "COSMOS 2251 DEB", "OBJECT_ID": "1993-036HW", "EPOCH": "2025-12-08T11:40:08.768640", "MEAN_MOTION": 14.51856418, "ECCENTRICITY": 0.0044422, "INCLINATION": 74.0658, "RA_OF_ASC_NODE": 357.1373, "ARG_OF_PERICENTER": 359.5802, "MEAN_ANOMALY": 150.6718, "EPHEMERIS_TYPE": 0, "CLASSIFICATION_TYPE": "U", "NORAD_CAT_ID": 34035, "ELEMENT_SET_NO": 999, "REV_AT_EPOCH": 87904, "BSTAR": 0.0019631014, "MEAN_MOTION_DOT": 7.99e-05, "MEAN_MOTION_DDOT": 0}, "tle": {"line1": "1 34035U 93036HW  25342.48621260  .00007990  00000+0  19631-2 0  9997", "line2": "2 34035  74.0658 357.1373 0044422 359.5802 150.6718 14.51856418879043"}}, "geometry": {"type": "Point", "coordinates": [150.97566402862319, 55.68862339541044]}}, {"type": "Feature", "properties": {"norad_id": 34036, "name": "COSMOS 2251 DEB", "group": "cosmos-2251-debris", "lat": -20.027169271949163, "lon": -17.67260355609815, "alt_km": 579.5655375549059, "timestamp": "2025-12-09T05:43:21.119952+00:00", "meta": {"OBJECT_NAME": "COSMOS 2251 DEB", "OBJECT_ID": "1993-036HX", "EPOCH": "2025-12-08T12:45:39.959136", "MEAN_MOTION": 14.94433356, "ECCENTRICITY": 0.0013472, "INCLINATION": 74.0203, "RA_OF_ASC_NODE": 157.7565, "ARG_OF_PERICENTER": 191.6688, "MEAN_ANOMALY": 168.4186, "EPHEMERIS_TYPE": 0, "CLASSIFICATION_TYPE": "U", "NORAD_CAT_ID": 34036, "ELEMENT_SET_NO": 999, "REV_AT_EPOCH": 88507, "BSTAR": 0.0046509, "MEAN_MOTION_DOT": 0.00050558, "MEAN_MOTION_DDOT": 0}, "tle": {"line1": "1 34036U 93036HX  25342.53171249  .00050558  00000+0  46509-2 0  9993", "line2": "2 34036  74.0203 157.7565 0013472 191.6688 168.4186 14.94433356885070"}}, "geometry": {"type": "Point", "coordinates": [-17.67260355609815, -20.027169271949163]}}, {"type": "Feature", "properties": {"norad_id": 34037, "name": "COSMOS 2251 DEB", "group": "cosmos-2251-debris", "lat": -59.11274332421475, "lon": 28.2952373208546, "alt_km": 819.8424410547932, "timestamp": "2025-12-09T05:43:21.119963+00:00", "meta": {"OBJECT_NAME": "COSMOS 2251 DEB", "OBJECT_ID": "1993-036HY", "EPOCH": "2025-12-08T14:57:24.538752", "MEAN_MOTION": 14.34649687, "ECCENTRICITY": 0.0052137, "INCLINATION": 74.0523, "RA_OF_ASC_NODE": 57.9766, "ARG_OF_PERICENTER": 109.2388, "MEAN_ANOMALY": 251.4416, "EPHEMERIS_TYPE": 0, "CLASSIFICATION_TYPE": "U", "NORAD_CAT_ID": 34037, "ELEMENT_SET_NO": 999, "REV_AT_EPOCH": 87658, "BSTAR": 0.00090852, "MEAN_MOTION_DOT": 2.584e-05, "MEAN_MOTION_DDOT": 0}, "tle": {"line1": "1 34037U 93036HY  25342.62320068  .00002584  00000+0  90852-3 0  9996", "line2": "2 34037  74.0523  57.9766 0052137 109.2388 251.4416 14.34649687876588"}}, "geometry": {"type": "Point", "coordinates": [28.2952373208546, -59.11274332421475]}}, {"type": "Feature", "properties": {"norad_id": 34040, "name": "COSMOS 2251 DEB", "group": "cosmos-2251-debris", "lat": -58.37863753217779, "lon": 43.786246141551004, "alt_km": 994.9939344371478, "timestamp": "2025-12-09T05:43:21.119973+00:00", "meta": {"OBJECT_NAME": "COSMOS 2251 DEB", "OBJECT_ID": "1993-036JB", "EPOCH": "2025-12-08T15:58:46.460064", "MEAN_MOTION": 13.68368017, "ECCENTRICITY": 0.0342916, "INCLINATION": 73.9558, "RA_OF_ASC_NODE": 72.5944, "ARG_OF_PERICENTER": 26.8037, "MEAN_ANOMALY": 335.0346, "EPHEMERIS_TYPE": 0, "CLASSIFICATION_TYPE": "U", "NORAD_CAT_ID": 34040, "ELEMENT_SET_NO": 999, "REV_AT_EPOCH": 83544, "BSTAR": 0.00064013, "MEAN_MOTION_DOT": 8.03e-06, "MEAN_MOTION_DDOT": 0}, "tle": {"line1": "1 34040U 93036JB  25342.66581551  .00000803  00000+0  64013-3 0  9992", "line2": "2 34040  73.9558  72.5944 0342916  26.8037 335.0346 13.68368017835443"}}, "geometry": {"type": "Point", "coordinates": [43.786246141551004, -58.37863753217779]}}, {"type": "Feature", "properties": {"norad_id": 34045, "name": "COSMOS 2251 DEB", "group": "cosmos-2251-debris", "lat": -10.897954047954824, "lon": -45.91969000121615, "alt_km": 771.0686375943842, "timestamp": "2025-12-09T05:43:21.119984+00:00", "meta": {"OBJECT_NAME": "COSMOS 2251 DEB", "OBJECT_ID": "1993-036JG", "EPOCH": "2025-12-08T10:14:56.814144", "MEAN_MOTION": 14.3406533, "ECCENTRICITY": 0.00255112, "INCLINATION": 74.0387, "RA_OF_ASC_NODE": 318.7231, "ARG_OF_PERICENTER": 43.4638, "MEAN_ANOMALY": 78.301, "EPHEMERIS_TYPE": 0, "CLASSIFICATION_TYPE": "U", "NORAD_CAT_ID": 34045, "ELEMENT_SET_NO": 999, "REV_AT_EPOCH": 87971, "BSTAR": 0.00018968061, "MEAN_MOTION_DOT": 5.06e-06, "MEAN_MOTION_DDOT": 0}, "tle": {"line1": "1 34045U 93036JG  25342.42704646  .00000506  00000+0  18968-3 0  9991", "line2": "2 34045  74.0387 318.7231 0025511  43.4638  78.3010 14.34065330879714"}}, "geometry": {"type": "Point", "coordinates": [-45.91969000121615, -10.897954047954824]}}, {"type": "Feature", "properties": {"norad_id": 34046, "name": "COSMOS 2251 DEB", "group": "cosmos-2251-debris", "lat": -2.765015990022217, "lon": -162.19726943000256, "alt_km": 731.8463199907437, "timestamp": "2025-12-09T05:43:21.119994+00:00", "meta": {"OBJECT_NAME": "COSMOS 2251 DEB", "OBJECT_ID": "1993-036JH", "EPOCH": "2025-12-08T12:58:55.151040", "MEAN_MOTION": 14.4642032, "ECCENTRICITY": 0.0074623, "INCLINATION": 74.0395, "RA_OF_ASC_NODE": 18.3124, "ARG_OF_PERICENTER": 102.9886, "MEAN_ANOMALY": 48.3117, "EPHEMERIS_TYPE": 0, "CLASSIFICATION_TYPE": "U", "NORAD_CAT_ID": 34046, "ELEMENT_SET_NO": 999, "REV_AT_EPOCH": 87765, "BSTAR": 0.0015933, "MEAN_MOTION_DOT": 5.905e-05, "MEAN_MOTION_DDOT": 0}, "tle": {"line1": "1 34046U 93036JH  25342.54091610  .00005905  00000+0  15933-2 0  9991", "line2": "2 34046  74.0395  18.3124 0074623 102.9886  48.3117 14.46420320877655"}}, "geometry": {"type": "Point", "coordinates": [-162.19726943000256, -2.765015990022217]}}, {"type": "Feature", "properties": {"norad_id": 34050, "name": "COSMOS 2251 DEB", "group": "cosmos-2251-debris", "lat": -29.947329062937946, "lon": 6.600180858964887, "alt_km": 969.4733570902627, "timestamp": "2025-12-09T05:43:21.120005+00:00", "meta": {"OBJECT_NAME": "COSMOS 2251 DEB", "OBJECT_ID": "1993-036JM", "EPOCH": "2025-12-08T13:14:34.936800", "MEAN_MOTION": 13.96171177, "ECCENTRICITY": 0.0214585, "INCLINATION": 74.0886, "RA_OF_ASC_NODE": 17.2364, "ARG_OF_PERICENTER": 82.6315, "MEAN_ANOMALY": 38.5943, "EPHEMERIS_TYPE": 0, "CLASSIFICATION_TYPE": "U", "NORAD_CAT_ID": 34050, "ELEMENT_SET_NO": 999, "REV_AT_EPOCH": 85373, "BSTAR": 0.00091157, "MEAN_MOTION_DOT": 1.499e-05, "MEAN_MOTION_DDOT": 0}, "tle": {"line1": "1 34050U 93036JM  25342.55179325  .00001499  00000+0  91157-3 0  9994", "line2": "2 34050  74.0886  17.2364 0214585  82.6315  38.5943 13.96171177853731"}}, "geometry": {"type": "Point", "coordinates": [6.600180858964887, -29.947329062937946]}}, {"type": "Feature", "properties": {"norad_id": 34053, "name": "COSMOS 2251 DEB", "group": "cosmos-2251-debris", "lat": 0.909633942914634, "lon": 67.54952765741115, "alt_km": 1320.4159938189423, "timestamp": "2025-12-09T05:43:21.120016+00:00", "meta": {"OBJECT_NAME": "COSMOS 2251 DEB", "OBJECT_ID": "1993-036JQ", "EPOCH": "2025-12-08T11:04:21.336384", "MEAN_MOTION": 13.49151516, "ECCENTRICITY": 0.04219632, "INCLINATION": 73.8445, "RA_OF_ASC_NODE": 249.065, "ARG_OF_PERICENTER": 38.3285, "MEAN_ANOMALY": 324.7018, "EPHEMERIS_TYPE": 0, "CLASSIFICATION_TYPE": "U", "NORAD_CAT_ID": 34053, "ELEMENT_SET_NO": 999, "REV_AT_EPOCH": 82626, "BSTAR": 0.0013500971, "MEAN_MOTION_DOT": 1.45e-05, "MEAN_MOTION_DDOT": 0}, "tle": {"line1": "1 34053U 93036JQ  25342.46135806  .00001450  00000+0  13501-2 0  9996", "line2": "2 34053  73.8445 249.0650 0421963  38.3285 324.7018 13.49151516826263"}}, "geometry": {"type": "Point", "coordinates": [67.54952765741115, 0.909633942914634]}}, {"type": "Feature", "properties": {"norad_id": 34056, "name": "COSMOS 2251 DEB", "group": "cosmos-2251-debris", "lat": 8.748887609518107, "lon": -99.88265597025044, "alt_km": 755.3084462336064, "timestamp": "2025-12-09T05:43:21.120027+00:00", "meta": {"OBJECT_NAME": "COSMOS 2251 DEB", "OBJECT_ID": "1993-036JT", "EPOCH": "2025-12-08T17:50:42.516096", "MEAN_MOTION": 14.20530807, "ECCENTRICITY": 0.0124292, "INCLINATION": 74.0597, "RA_OF_ASC_NODE": 83.5227, "ARG_OF_PERICENTER": 132.3899, "MEAN_ANOMALY": 27.6704, "EPHEMERIS_TYPE": 0, "CLASSIFICATION_TYPE": "U", "NORAD_CAT_ID": 34056, "ELEMENT_SET_NO": 999, "REV_AT_EPOCH": 86354, "BSTAR": 0.0018699, "MEAN_MOTION_DOT": 4.321e-05, "MEAN_MOTION_DDOT": 0}, "tle": {"line1": "1 34056U 93036JT  25342.74354764  .00004321  00000+0  18699-2 0  9999", "line2": "2 34056  74.0597  83.5227 0124292 132.3899  27.6704 14.20530807863546"}}, "geometry": {"type": "Point", "coordinates": [-99.88265597025044, 8.748887609518107]}}]}